0 COSMOS 1553
1 14973U 84046A   13281.86268884  .00000098  00000-0  86986-4 0   361
2 14973 082.9335 090.5004 0031265 245.9396 223.0945 13.75188534474958
0 COSMOS 1553
1 14973U 84046A   13283.10534664  .00000087  00000-0  74693-4 0   373
2 14973 082.9335 089.5783 0031298 242.3358 255.2307 13.75188918475120
0 COSMOS 1553
1 14973U 84046A   13284.19365453  .00000078  00000-0  65722-4 0   385
2 14973 082.9336 088.7707 0031347 239.1911 243.2026 13.75189123475272
0 COSMOS 1553
1 14973U 84046A   13285.48931883  .00000051  00000-0  37149-4 0   398
2 14973 082.9337 087.8093 0031409 235.4614 177.7363 13.75189461475459
0 COSMOS 1553
1 14973U 84046A   13286.50360829  .00000042  00000-0  28570-4 0   408
2 14973 082.9339 087.0566 0031469 232.5772 159.2144 13.75189609475598
0 COSMOS 1553
1 14973U 84046A   13287.82882812  .00000064  00000-0  51394-4 0   410
2 14973 082.9342 086.0733 0031554 228.8047 240.0324 13.75189846475777
0 COSMOS 1553
1 14973U 84046A   13288.84380260  .00000066  00000-0  53023-4 0   427
2 14973 082.9345 085.3202 0031613 225.9058 224.9165 13.75189940475914
0 COSMOS 1553
1 14973U 84046A   13289.86580956  .00000055  00000-0  42092-4 0   437
2 14973 082.9347 084.5620 0031684 223.0208 244.5828 13.75189879476056
0 COSMOS 1553
1 14973U 84046A   13291.10550514  .00000071  00000-0  57885-4 0   449
2 14973 082.9349 083.6423 0031756 219.4604 262.0257 13.75189988476229
0 COSMOS 1553
1 14973U 84046A   13292.12580395  .00000089  00000-0  77068-4 0   457
2 14973 082.9351 082.8854 0031824 216.6015 273.2155 13.75190016476362
0 COSMOS 1553
1 14973U 84046A   13293.49643012  .00000104  00000-0  92168-4 0   461
2 14973 082.9352 081.8687 0031919 212.7501 218.7801 13.75190178476550
0 COSMOS 1553
1 14973U 84046A   13294.51543292  .00000088  00000-0  76089-4 0   470
2 14973 082.9353 081.1129 0031973 209.8327 223.6153 13.75190236476693
0 COSMOS 1553
1 14973U 84046A   13295.83230751  .00000070  00000-0  57181-4 0   483
2 14973 082.9354 080.1360 0032066 206.2647 262.9395 13.75190178476879
